[Satellite]
VERSION=1.1
NAME=SL-14 R/B
NICKNAME=SL-14 R/B
TLE1=1 20466U 90010B   17186.07228498  .00000082  00000-0  74978-5 0  9991
TLE2=2 20466  82.5027 355.8695 0019012 280.6974  79.2099 14.81284484459080
